"2022 HW1" "Sol" 
{ 
	Class "asteroid" 
	Texture "asteroid.jpg" 
	Radius 0.009       # Calculated from Absolute Mag
	Mesh "asteroid.cms"

	EllipticalOrbit 
	{ 
	Epoch       2459600.5   
	Period            3.126065469797038
	SemiMajorAxis     2.137928834432156
	Eccentricity      0.5212999572618702
	Inclination      4.735934256935029
	AscendingNode    34.62552738575077
	ArgOfPericenter  199.3650316141873
	MeanAnomaly     324.7299942257385
	} 

	InfoURL "https://ssd.jpl.nasa.gov/tools/sbdb_lookup.html#/?sstr=2022%20HW1"

	UniformRotation
	{
	Period         10 # Arbitrary 
	}

	Absmag    26.308
    Albedo    0.15 
}

"2022 HX1" "Sol" 
{ 
	Class "asteroid" 
	Texture "asteroid.jpg" 
	Radius 0.007       # Calculated from Absolute Mag
	Mesh "asteroid.cms"

	EllipticalOrbit 
	{ 
	Epoch       2459694.5   
	Period            1.821757610374509
	SemiMajorAxis     1.491608765337122
	Eccentricity      0.4378792444927939
	Inclination      6.25777376097474
	AscendingNode    31.87383335232966
	ArgOfPericenter  251.6578909304612
	MeanAnomaly     331.3279128094563
	} 

	InfoURL "https://ssd.jpl.nasa.gov/tools/sbdb_lookup.html#/?sstr=2022%20HX1"

	UniformRotation
	{
	Period         10 # Arbitrary 
	}

	Absmag    26.769
    Albedo    0.15 
}

"2022 HY1" "Sol" 
{ 
	Class "asteroid" 
	Texture "asteroid.jpg" 
	Radius 0.005       # Calculated from Absolute Mag
	Mesh "asteroid.cms"

	EllipticalOrbit 
	{ 
	Epoch       2459694.5   
	Period            2.658913802483107
	SemiMajorAxis     1.919246265102607
	Eccentricity      0.5598990969366445
	Inclination      7.273582940875281
	AscendingNode    34.01189962310752
	ArgOfPericenter  118.1026216651245
	MeanAnomaly     16.81518265278432
	} 

	InfoURL "https://ssd.jpl.nasa.gov/tools/sbdb_lookup.html#/?sstr=2022%20HY1"

	UniformRotation
	{
	Period         10 # Arbitrary 
	}

	Absmag    27.421
    Albedo    0.15 
}

"2022 HZ1" "Sol" 
{ 
	Class "asteroid" 
	Texture "asteroid.jpg" 
	Radius 0.046       # Calculated from Absolute Mag
	Mesh "asteroid.cms"

	EllipticalOrbit 
	{ 
	Epoch       2459693.5   
	Period            3.818848061155200
	SemiMajorAxis     2.443146173374096
	Eccentricity      0.5074388050558259
	Inclination      15.46231206460713
	AscendingNode    44.73403539520071
	ArgOfPericenter  131.7710964799636
	MeanAnomaly     12.63201974438334
	} 

	InfoURL "https://ssd.jpl.nasa.gov/tools/sbdb_lookup.html#/?sstr=2022%20HZ1"

	UniformRotation
	{
	Period         10 # Arbitrary 
	}

	Absmag    22.834
    Albedo    0.15 
}

"2022 HA2" "Sol" 
{ 
	Class "asteroid" 
	Texture "asteroid.jpg" 
	Radius 0.017       # Calculated from Absolute Mag
	Mesh "asteroid.cms"

	EllipticalOrbit 
	{ 
	Epoch       2459600.5   
	Period            1.124917803833555
	SemiMajorAxis     1.081620870652862
	Eccentricity      0.1790999260748675
	Inclination      23.10938175033829
	AscendingNode    39.35626938354359
	ArgOfPericenter  266.8108660688636
	MeanAnomaly     205.9763218464672
	} 

	InfoURL "https://ssd.jpl.nasa.gov/tools/sbdb_lookup.html#/?sstr=2022%20HA2"

	UniformRotation
	{
	Period         10 # Arbitrary 
	}

	Absmag    24.93
    Albedo    0.15 
}

"2022 HB2" "Sol" 
{ 
	Class "asteroid" 
	Texture "asteroid.jpg" 
	Radius 0.006       # Calculated from Absolute Mag
	Mesh "asteroid.cms"

	EllipticalOrbit 
	{ 
	Epoch       2459600.5   
	Period            2.654555636531549
	SemiMajorAxis     1.917148496115074
	Eccentricity      0.4842673624902425
	Inclination      6.500329633578483
	AscendingNode    213.5462188040805
	ArgOfPericenter  341.0142855920627
	MeanAnomaly     331.1286912648682
	} 

	InfoURL "https://ssd.jpl.nasa.gov/tools/sbdb_lookup.html#/?sstr=2022%20HB2"

	UniformRotation
	{
	Period         10 # Arbitrary 
	}

	Absmag    27.261
    Albedo    0.15 
}

"2022 HC2" "Sol" 
{ 
	Class "asteroid" 
	Texture "asteroid.jpg" 
	Radius 0.018       # Calculated from Absolute Mag
	Mesh "asteroid.cms"

	EllipticalOrbit 
	{ 
	Epoch       2459600.5   
	Period            0.8924559195208974
	SemiMajorAxis     0.9269416176938565
	Eccentricity      0.1528818778822254
	Inclination      8.612920307059527
	AscendingNode    50.33853108240038
	ArgOfPericenter  350.7228910433142
	MeanAnomaly     70.07650083409857
	} 

	InfoURL "https://ssd.jpl.nasa.gov/tools/sbdb_lookup.html#/?sstr=2022%20HC2"

	UniformRotation
	{
	Period         10 # Arbitrary 
	}

	Absmag    24.868
    Albedo    0.15 
}

"2022 HD2" "Sol" 
{ 
	Class "asteroid" 
	Texture "asteroid.jpg" 
	Radius 0.069       # Calculated from Absolute Mag
	Mesh "asteroid.cms"

	EllipticalOrbit 
	{ 
	Epoch       2459695.5   
	Period            2.280208390688437
	SemiMajorAxis     1.732384242469758
	Eccentricity      0.6767025011870178
	Inclination      47.22715132436615
	AscendingNode    213.3291005605633
	ArgOfPericenter  244.0187746277506
	MeanAnomaly     32.38345796889673
	} 

	InfoURL "https://ssd.jpl.nasa.gov/tools/sbdb_lookup.html#/?sstr=2022%20HD2"

	UniformRotation
	{
	Period         10 # Arbitrary 
	}

	Absmag    21.947
    Albedo    0.15 
}

"2022 HG2" "Sol" 
{ 
	Class "asteroid" 
	Texture "asteroid.jpg" 
	Radius 0.024       # Calculated from Absolute Mag
	Mesh "asteroid.cms"

	EllipticalOrbit 
	{ 
	Epoch       2459695.5   
	Period            3.253950771395390
	SemiMajorAxis     2.195845858154175
	Eccentricity      0.5170572059426977
	Inclination      4.989744184600816
	AscendingNode    113.9619734631808
	ArgOfPericenter  126.5252186008868
	MeanAnomaly     352.9628768453248
	} 

	InfoURL "https://ssd.jpl.nasa.gov/tools/sbdb_lookup.html#/?sstr=2022%20HG2"

	UniformRotation
	{
	Period         10 # Arbitrary 
	}

	Absmag    24.183
    Albedo    0.15 
}

"2022 HH2" "Sol" 
{ 
	Class "asteroid" 
	Texture "asteroid.jpg" 
	Radius 0.006       # Calculated from Absolute Mag
	Mesh "asteroid.cms"

	EllipticalOrbit 
	{ 
	Epoch       2459695.5   
	Period            4.645530660688205
	SemiMajorAxis     2.784099500161718
	Eccentricity      0.6855693499222776
	Inclination      10.72797394456464
	AscendingNode    41.31682623608036
	ArgOfPericenter  224.8226101640095
	MeanAnomaly     352.2499410338434
	} 

	InfoURL "https://ssd.jpl.nasa.gov/tools/sbdb_lookup.html#/?sstr=2022%20HH2"

	UniformRotation
	{
	Period         10 # Arbitrary 
	}

	Absmag    27.031
    Albedo    0.15 
}

"2022 HJ2" "Sol" 
{ 
	Class "asteroid" 
	Texture "asteroid.jpg" 
	Radius 0.012       # Calculated from Absolute Mag
	Mesh "asteroid.cms"

	EllipticalOrbit 
	{ 
	Epoch       2459600.5   
	Period            2.785204548125372
	SemiMajorAxis     1.97954750763429
	Eccentricity      0.4788478820866068
	Inclination      4.108701928101616
	AscendingNode    54.75758329729548
	ArgOfPericenter  149.1858161554302
	MeanAnomaly     329.90407807244
	} 

	InfoURL "https://ssd.jpl.nasa.gov/tools/sbdb_lookup.html#/?sstr=2022%20HJ2"

	UniformRotation
	{
	Period         10 # Arbitrary 
	}

	Absmag    25.768
    Albedo    0.15 
}

"2022 HL2" "Sol" 
{ 
	Class "asteroid" 
	Texture "asteroid.jpg" 
	Radius 0.01       # Calculated from Absolute Mag
	Mesh "asteroid.cms"

	EllipticalOrbit 
	{ 
	Epoch       2459600.5   
	Period            0.9794860746753637
	SemiMajorAxis     0.9862644423274923
	Eccentricity      0.1215841884792556
	Inclination      11.04762311534101
	AscendingNode    41.35068446971595
	ArgOfPericenter  297.10607439656
	MeanAnomaly     154.8644085416918
	} 

	InfoURL "https://ssd.jpl.nasa.gov/tools/sbdb_lookup.html#/?sstr=2022%20HL2"

	UniformRotation
	{
	Period         10 # Arbitrary 
	}

	Absmag    26.15
    Albedo    0.15 
}

"2022 HK2" "Sol" 
{ 
	Class "asteroid" 
	Texture "asteroid.jpg" 
	Radius 0.023       # Calculated from Absolute Mag
	Mesh "asteroid.cms"

	EllipticalOrbit 
	{ 
	Epoch       2459696.5   
	Period            1.855995442402759
	SemiMajorAxis     1.510239420528543
	Eccentricity      0.5948296905515701
	Inclination      7.897819002014795
	AscendingNode    53.96098658521647
	ArgOfPericenter  62.54757888829501
	MeanAnomaly     31.75429250876197
	} 

	InfoURL "https://ssd.jpl.nasa.gov/tools/sbdb_lookup.html#/?sstr=2022%20HK2"

	UniformRotation
	{
	Period         10 # Arbitrary 
	}

	Absmag    24.347
    Albedo    0.15 
}

"2022 HN2" "Sol" 
{ 
	Class "asteroid" 
	Texture "asteroid.jpg" 
	Radius 0.041       # Calculated from Absolute Mag
	Mesh "asteroid.cms"

	EllipticalOrbit 
	{ 
	Epoch       2459694.5   
	Period            2.741188414632665
	SemiMajorAxis     1.958636259856523
	Eccentricity      0.5030798739807796
	Inclination      7.251904931470437
	AscendingNode    82.90587702797596
	ArgOfPericenter  191.408504729272
	MeanAnomaly     341.275657436394
	} 

	InfoURL "https://ssd.jpl.nasa.gov/tools/sbdb_lookup.html#/?sstr=2022%20HN2"

	UniformRotation
	{
	Period         10 # Arbitrary 
	}

	Absmag    23.057
    Albedo    0.15 
}

